GLOBALSTAR M035 [-]     
1 25851U 99037A   23252.59933712 -.00000110  00000+0 -17690-2 0  9990
2 25851  51.9966  56.8907 0014068  17.6664  58.0249 11.04526178 24811
GLOBALSTAR M032 [-]     
1 25852U 99037B   23252.35763863 -.00000112  00000+0 -14460-2 0  9997
2 25852  51.9942 287.2652 0008019 156.1684 203.9488 11.19044654 62372
GLOBALSTAR M051 [-]     
1 25853U 99037C   23252.42015221 -.00000063  00000+0  21870-3 0  9992
2 25853  51.9782 161.1181 0001585 116.9113 243.1860 11.42190949 58486
GLOBALSTAR M030 [-]     
1 25854U 99037D   23252.57799914 -.00000077  00000+0 -36024-4 0  9991
2 25854  51.9915   7.9507 0003760 331.0492  29.0116 11.55089557 75324
GLOBALSTAR M048 [-]     
1 25872U 99041A   23252.46833226 -.00000064  00000+0  16871-3 0  9991
2 25872  51.9371  71.0205 0013649 141.4832 238.9063 11.33839525 51628
GLOBALSTAR M026 [-]     
1 25873U 99041B   23252.08698160  .00000007  00000+0  26200-2 0  9998
2 25873  52.0014 182.8221 0001502 291.6698 195.2356 11.06823259 76834
GLOBALSTAR M043 [-]     
1 25874U 99041C   23252.49167847 -.00000074  00000+0 -16355-3 0  9994
2 25874  51.9392 152.8408 0012961 291.4206 239.2279 11.25673883 50045
GLOBALSTAR M028 [-]     
1 25875U 99041D   23252.47565589 -.00000077  00000+0  15232-3 0  9993
2 25875  51.9640 321.3727 0064016 107.2334 253.5546 12.50539755109266
